{"type": "FeatureCollection", "features": [ {"type": "Feature", "properties": {"norad_id": 39574, "name": "GPM-CORE", "group": "resource", "lat": -44.33615734945114, "lon": -149.33844112374942, "alt_km": 430.8742775630326, "timestamp": "2025-12-05T05:43:14.771408+00:00", "meta": {"OBJECT_NAME": "GPM-CORE", "OBJECT_ID": "2014-009C", "EPOCH": "2025-12-04T15:57:33.319008", "MEAN_MOTION": 15.45245406, "ECCENTRICITY": 0.0010521, "INCLINATION": 64.9752, "RA_OF_ASC_NODE": 239.742, "ARG_OF_PERICENTER": 268.843, "MEAN_ANOMALY": 91.1506, "EPHEMERIS_TYPE": 0, "CLASSIFICATION_TYPE": "U", "NORAD_CAT_ID": 39574, "ELEMENT_SET_NO": 999, "REV_AT_EPOCH": 66776, "BSTAR": 0.0006063, "MEAN_MOTION_DOT": 0.00028915, "MEAN_MOTION_DDOT": 0}, "tle": {"line1": "1 39574U 14009C   25338.66496897  .00028915  00000+0  60630-3 0  9990", "line2": "2 39574  64.9752 239.7420 0010521 268.8430  91.1506 15.45245406667760"}}, "geometry": {"type": "Point", "coordinates": [-149.33844112374942, -44.33615734945114]}}, {"type": "Feature", "properties": {"norad_id": 39634, "name": "SENTINEL-1A", "group": "resource", "lat": -18.22609857586963, "lon": -12.694431819569129, "alt_km": 701.021796326454, "timestamp": "2025-12-05T05:43:14.771418+00:00", "meta": {"OBJECT_NAME": "SENTINEL-1A", "OBJECT_ID": "2014-016A", "EPOCH": "2025-12-04T18:17:06.055296", "MEAN_MOTION": 14.59201773, "ECCENTRICITY": 0.0001246, "INCLINATION": 98.1805, "RA_OF_ASC_NODE": 344.1211, "ARG_OF_PERICENTER": 89.5923, "MEAN_ANOMALY": 270.542, "EPHEMERIS_TYPE": 0, "CLASSIFICATION_TYPE": "U", "NORAD_CAT_ID": 39634, "ELEMENT_SET_NO": 999, "REV_AT_EPOCH": 62166, "BSTAR": 4.7994e-05, "MEAN_MOTION_DOT": 1.8e-06, "MEAN_MOTION_DDOT": 0}, "tle": {"line1": "1 39634U 14016A   25338.76187564  .00000180  00000+0  47994-4 0  9997", "line2": "2 39634  98.1805 344.1211 0001246  89.5923 270.5420 14.59201773621663"}}, "geometry": {"type": "Point", "coordinates": [-12.694431819569129, -18.22609857586963]}}, {"type": "Feature", "properties": {"norad_id": 39731, "name": "KAZEOSAT 1", "group": "resource", "lat": 57.33821081493324, "lon": 38.078460500161285, "alt_km": 745.6018649189937, "timestamp": "2025-12-05T05:43:14.771428+00:00", "meta": {"OBJECT_NAME": "KAZEOSAT 1", "OBJECT_ID": "2014-024A", "EPOCH": "2025-12-04T17:47:40.369344", "MEAN_MOTION": 14.42055496, "ECCENTRICITY": 0.000106, "INCLINATION": 98.3443, "RA_OF_ASC_NODE": 50.8281, "ARG_OF_PERICENTER": 99.2817, "MEAN_ANOMALY": 260.8493, "EPHEMERIS_TYPE": 0, "CLASSIFICATION_TYPE": "U", "NORAD_CAT_ID": 39731, "ELEMENT_SET_NO": 999, "REV_AT_EPOCH": 61053, "BSTAR": 0.00016587, "MEAN_MOTION_DOT": 5.02e-06, "MEAN_MOTION_DDOT": 0}, "tle": {"line1": "1 39731U 14024A   25338.74143946  .00000502  00000+0  16587-3 0  9999", "line2": "2 39731  98.3443  50.8281 0001060  99.2817 260.8493 14.42055496610530"}}, "geometry": {"type": "Point", "coordinates": [38.078460500161285, 57.33821081493324]}}, {"type": "Feature", "properties": {"norad_id": 39766, "name": "ALOS-2", "group": "resource", "lat": 13.842048728506198, "lon": 72.22514617619008, "alt_km": 632.141036017516, "timestamp": "2025-12-05T05:43:14.771438+00:00", "meta": {"OBJECT_NAME": "ALOS-2", "OBJECT_ID": "2014-029A", "EPOCH": "2025-12-04T18:17:43.183104", "MEAN_MOTION": 14.79453512, "ECCENTRICITY": 0.0001486, "INCLINATION": 97.9239, "RA_OF_ASC_NODE": 73.7226, "ARG_OF_PERICENTER": 108.6237, "MEAN_ANOMALY": 251.5135, "EPHEMERIS_TYPE": 0, "CLASSIFICATION_TYPE": "U", "NORAD_CAT_ID": 39766, "ELEMENT_SET_NO": 999, "REV_AT_EPOCH": 62283, "BSTAR": 0.0006095, "MEAN_MOTION_DOT": 4.501e-05, "MEAN_MOTION_DDOT": 0}, "tle": {"line1": "1 39766U 14029A   25338.76230536  .00004501  00000+0  60950-3 0  9992", "line2": "2 39766  97.9239  73.7226 0001486 108.6237 251.5135 14.79453512622839"}}, "geometry": {"type": "Point", "coordinates": [72.22514617619008, 13.842048728506198]}}, {"type": "Feature", "properties": {"norad_id": 40010, "name": "KAZEOSAT 2", "group": "resource", "lat": 48.57321966200516, "lon": 12.585293759933215, "alt_km": 610.0132065721809, "timestamp": "2025-12-05T05:43:14.771449+00:00", "meta": {"OBJECT_NAME": "KAZEOSAT 2", "OBJECT_ID": "2014-033A", "EPOCH": "2025-12-04T17:48:51.218208", "MEAN_MOTION": 14.85147924, "ECCENTRICITY": 0.0007291, "INCLINATION": 97.5511, "RA_OF_ASC_NODE": 183.4695, "ARG_OF_PERICENTER": 236.4741, "MEAN_ANOMALY": 123.5779, "EPHEMERIS_TYPE": 0, "CLASSIFICATION_TYPE": "U", "NORAD_CAT_ID": 40010, "ELEMENT_SET_NO": 999, "REV_AT_EPOCH": 62009, "BSTAR": 0.0001767, "MEAN_MOTION_DOT": 1.463e-05, "MEAN_MOTION_DDOT": 0}, "tle": {"line1": "1 40010U 14033A   25338.74225947  .00001463  00000+0  17670-3 0  9994", "line2": "2 40010  97.5511 183.4695 0007291 236.4741 123.5779 14.85147924620093"}}, "geometry": {"type": "Point", "coordinates": [12.585293759933215, 48.57321966200516]}}, {"type": "Feature", "properties": {"norad_id": 40011, "name": "HODOYOSHI-4", "group": "resource", "lat": 23.372543324552918, "lon": -8.226200611072079, "alt_km": 600.0591178586064, "timestamp": "2025-12-05T05:43:14.771459+00:00", "meta": {"OBJECT_NAME": "HODOYOSHI-4", "OBJECT_ID": "2014-033B", "EPOCH": "2025-12-04T19:19:52.665888", "MEAN_MOTION": 14.87435715, "ECCENTRICITY": 0.0022735, "INCLINATION": 97.5412, "RA_OF_ASC_NODE": 168.0804, "ARG_OF_PERICENTER": 227.7522, "MEAN_ANOMALY": 132.1767, "EPHEMERIS_TYPE": 0, "CLASSIFICATION_TYPE": "U", "NORAD_CAT_ID": 40011, "ELEMENT_SET_NO": 999, "REV_AT_EPOCH": 61990, "BSTAR": 0.00046292, "MEAN_MOTION_DOT": 4.158e-05, "MEAN_MOTION_DDOT": 0}, "tle": {"line1": "1 40011U 14033B   25338.80547067  .00004158  00000+0  46292-3 0  9998", "line2": "2 40011  97.5412 168.0804 0022735 227.7522 132.1767 14.87435715619906"}}, "geometry": {"type": "Point", "coordinates": [-8.226200611072079, 23.372543324552918]}}, {"type": "Feature", "properties": {"norad_id": 40013, "name": "DEIMOS-2", "group": "resource", "lat": 13.989276921262272, "lon": 37.19319864546288, "alt_km": 589.7246218608789, "timestamp": "2025-12-05T05:43:14.771469+00:00", "meta": {"OBJECT_NAME": "DEIMOS-2", "OBJECT_ID": "2014-033D", "EPOCH": "2025-12-04T19:19:45.041952", "MEAN_MOTION": 14.9291659, "ECCENTRICITY": 9.09e-05, "INCLINATION": 97.6071, "RA_OF_ASC_NODE": 214.8666, "ARG_OF_PERICENTER": 92.0865, "MEAN_ANOMALY": 268.0458, "EPHEMERIS_TYPE": 0, "CLASSIFICATION_TYPE": "U", "NORAD_CAT_ID": 40013, "ELEMENT_SET_NO": 999, "REV_AT_EPOCH": 60871, "BSTAR": 0.00052195, "MEAN_MOTION_DOT": 5.361e-05, "MEAN_MOTION_DDOT": 0}, "tle": {"line1": "1 40013U 14033D   25338.80538243  .00005361  00000+0  52195-3 0  9992", "line2": "2 40013  97.6071 214.8666 0000909  92.0865 268.0458 14.92916590608712"}}, "geometry": {"type": "Point", "coordinates": [37.19319864546288, 13.989276921262272]}}, {"type": "Feature", "properties": {"norad_id": 40015, "name": "HODOYOSHI-3", "group": "resource", "lat": 25.96165281435103, "lon": -30.863518254836364, "alt_km": 624.5678055895769, "timestamp": "2025-12-05T05:43:14.771479+00:00", "meta": {"OBJECT_NAME": "HODOYOSHI-3", "OBJECT_ID": "2014-033F", "EPOCH": "2025-12-04T11:14:10.478112", "MEAN_MOTION": 14.84762623, "ECCENTRICITY": 0.0031829, "INCLINATION": 97.6193, "RA_OF_ASC_NODE": 144.6631, "ARG_OF_PERICENTER": 276.2794, "MEAN_ANOMALY": 83.4796, "EPHEMERIS_TYPE": 0, "CLASSIFICATION_TYPE": "U", "NORAD_CAT_ID": 40015, "ELEMENT_SET_NO": 999, "REV_AT_EPOCH": 61872, "BSTAR": 0.00045866, "MEAN_MOTION_DOT": 3.872e-05, "MEAN_MOTION_DDOT": 0}, "tle": {"line1": "1 40015U 14033F   25338.46817683  .00003872  00000+0  45866-3 0  9996", "line2": "2 40015  97.6193 144.6631 0031829 276.2794  83.4796 14.84762623618726"}}, "geometry": {"type": "Point", "coordinates": [-30.863518254836364, 25.96165281435103]}}, {"type": "Feature", "properties": {"norad_id": 40053, "name": "SPOT 7", "group": "resource", "lat": 14.459004439438946, "lon": -136.41120786967002, "alt_km": 691.4219265963302, "timestamp": "2025-12-05T05:43:14.771489+00:00", "meta": {"OBJECT_NAME": "SPOT 7", "OBJECT_ID": "2014-034A", "EPOCH": "2025-12-04T17:27:31.171104", "MEAN_MOTION": 14.60718291, "ECCENTRICITY": 0.0001525, "INCLINATION": 98.0917, "RA_OF_ASC_NODE": 40.9873, "ARG_OF_PERICENTER": 96.2209, "MEAN_ANOMALY": 263.9166, "EPHEMERIS_TYPE": 0, "CLASSIFICATION_TYPE": "U", "NORAD_CAT_ID": 40053, "ELEMENT_SET_NO": 999, "REV_AT_EPOCH": 60874, "BSTAR": 0.0002482, "MEAN_MOTION_DOT": 1.164e-05, "MEAN_MOTION_DDOT": 0}, "tle": {"line1": "1 40053U 14034A   25338.72744411  .00001164  00000+0  24820-3 0  9995", "line2": "2 40053  98.0917  40.9873 0001525  96.2209 263.9166 14.60718291608747"}}, "geometry": {"type": "Point", "coordinates": [-136.41120786967002, 14.459004439438946]}}, {"type": "Feature", "properties": {"norad_id": 40072, "name": "SKYSAT-B", "group": "resource", "lat": 74.34501908429024, "lon": 134.19797127733932, "alt_km": 597.989378954986, "timestamp": "2025-12-05T05:43:14.771500+00:00", "meta": {"OBJECT_NAME": "SKYSAT-B", "OBJECT_ID": "2014-037D", "EPOCH": "2025-12-04T16:20:26.489760", "MEAN_MOTION": 14.87280526, "ECCENTRICITY": 0.0005486, "INCLINATION": 98.3596, "RA_OF_ASC_NODE": 281.9621, "ARG_OF_PERICENTER": 174.8028, "MEAN_ANOMALY": 185.3245, "EPHEMERIS_TYPE": 0, "CLASSIFICATION_TYPE": "U", "NORAD_CAT_ID": 40072, "ELEMENT_SET_NO": 999, "REV_AT_EPOCH": 61704, "BSTAR": 0.00042981, "MEAN_MOTION_DOT": 3.817e-05, "MEAN_MOTION_DDOT": 0}, "tle": {"line1": "1 40072U 14037D   25338.68086215  .00003817  00000+0  42981-3 0  9990", "line2": "2 40072  98.3596 281.9621 0005486 174.8028 185.3245 14.87280526617046"}}, "geometry": {"type": "Point", "coordinates": [134.19797127733932, 74.34501908429024]}}]}